{"epoch":1784799577,"count":18318,"objects":[{"id":"66000","name":"HULIANWANG DIGUI-92","type":"PAYLOAD","l1":"1 66000U 25231F   26203.54118847 -.00000109  00000-0  32719-4 0  9993","l2":"2 66000  50.0063  48.8566 0000493   7.2062 352.8818 13.29329223 37593"},{"id":"66001","name":"HULIANWANG DIGUI-93","type":"PAYLOAD","l1":"1 66001U 25231G   26203.59963193 -.00000113  00000-0  24358-4 0  9996","l2":"2 66001  50.0030  48.4330 0000481   2.6369 357.4505 13.29328299 37607"},{"id":"66002","name":"HULIANWANG DIGUI-94","type":"PAYLOAD","l1":"1 66002U 25231H   26202.93153750 -.00000104  00000-0  42810-4 0  9997","l2":"2 66002  50.0067  50.9888 0000514   2.0824 358.0050 13.29326254 37512"},{"id":"66003","name":"HULIANWANG DIGUI-95","type":"PAYLOAD","l1":"1 66003U 25231J   26203.81683815 -.00000115  00000-0  19039-4 0  9995","l2":"2 66003  50.0042  47.6069 0000428   9.8614 350.2267 13.29332744 37634"},{"id":"66412","name":"HULIANWANG DIGUI-96","type":"PAYLOAD","l1":"1 66412U 25258A   26203.91575008 -.00000086  00000-0  81195-4 0  9992","l2":"2 66412  50.0028 167.4961 0000799 277.6858  82.3924 13.29327687 34483"},{"id":"66413","name":"HULIANWANG DIGUI-97","type":"PAYLOAD","l1":"1 66413U 25258B   26203.94912090 -.00000075  00000-0  10467-3 0  9993","l2":"2 66413  49.9992 167.5990 0000952 276.3561  83.7203 13.29327219 34488"},{"id":"66414","name":"HULIANWANG DIGUI-98","type":"PAYLOAD","l1":"1 66414U 25258C   26203.94093431 -.00000075  00000-0  10623-3 0  9997","l2":"2 66414  50.0029 167.6368 0001033 272.2329  87.8425 13.29323742 34489"},{"id":"66415","name":"HULIANWANG DIGUI-99","type":"PAYLOAD","l1":"1 66415U 25258D   26203.90743038 -.00000087  00000-0  80057-4 0  9991","l2":"2 66415  50.0028 167.4551 0000921 280.1106  79.9662 13.29326914 34475"},{"id":"66416","name":"HULIANWANG DIGUI-100","type":"PAYLOAD","l1":"1 66416U 25258E   26203.93257172 -.00000083  00000-0  89363-4 0  9999","l2":"2 66416  50.0032 167.5978 0000949 285.0982  74.9785 13.29323740 34498"},{"id":"66417","name":"HULIANWANG DIGUI-101","type":"PAYLOAD","l1":"1 66417U 25258F   26203.92401212 -.00000081  00000-0  91656-4 0  9991","l2":"2 66417  49.9981 167.4428 0000761 281.6387  78.4400 13.29327654 34492"},{"id":"66418","name":"HULIANWANG DIGUI-102","type":"PAYLOAD","l1":"1 66418U 25258G   26203.89911159 -.00000083  00000-0  89059-4 0  9990","l2":"2 66418  49.9995 167.3386 0000826 276.0677  84.0101 13.29323590 34487"},{"id":"66419","name":"HULIANWANG DIGUI-103","type":"PAYLOAD","l1":"1 66419U 25258H   26203.89061288 -.00000082  00000-0  90956-4 0  9997","l2":"2 66419  49.9988 167.2794 0000938 285.6326  74.4442 13.29326684 34481"},{"id":"66420","name":"HULIANWANG DIGUI-104","type":"PAYLOAD","l1":"1 66420U 25258J   26203.28086665 -.00000081  00000-0  93422-4 0  9998","l2":"2 66420  50.0004 169.4336 0000889 272.9527  87.1243 13.29326681 34395"},{"id":"66915","name":"HULIANWANG DIGUI-105","type":"PAYLOAD","l1":"1 66915U 25285A   26203.73604478 -.00000109  00000-0  33119-4 0  9993","l2":"2 66915  50.0067  18.7266 0000909  60.6897 299.4066 13.29322902 30788"},{"id":"66916","name":"HULIANWANG DIGUI-106","type":"PAYLOAD","l1":"1 66916U 25285B   26203.87800372 -.00000126  00000-0 -35013-5 0  9996","l2":"2 66916  50.0079  18.1650 0000934  60.1587 299.9378 13.29323198 30804"},{"id":"66917","name":"HULIANWANG DIGUI-107","type":"PAYLOAD","l1":"1 66917U 25285C   26203.86949506 -.00000106  00000-0  39857-4 0  9995","l2":"2 66917  50.0043  18.0568 0000902  64.8553 295.2413 13.29326213 30802"}]}