{"fetched_at":"2026-07-23T07:05:44.990Z","source":"https://celestrak.org/NORAD/elements/gp.php?NAME=HULIANWANG&FORMAT=JSON","constellation":"guowang","records":[{"OBJECT_NAME":"HULIANWANG DIGUI-92","OBJECT_ID":"2025-231F","EPOCH":"2026-07-22T12:59:18.683808","CLASSIFICATION_TYPE":"U","MEAN_MOTION":13.29329223,"ECCENTRICITY":0.00004933,"INCLINATION":50.0063,"RA_OF_ASC_NODE":48.8566,"ARG_OF_PERICENTER":7.2062,"MEAN_ANOMALY":352.8818,"EPHEMERIS_TYPE":0,"NORAD_CAT_ID":66000,"ELEMENT_SET_NO":999,"REV_AT_EPOCH":3759,"BSTAR":0.00003271872,"MEAN_MOTION_DOT":-0.00000109,"MEAN_MOTION_DDOT":0},{"OBJECT_NAME":"HULIANWANG DIGUI-93","OBJECT_ID":"2025-231G","EPOCH":"2026-07-22T14:23:28.198752","CLASSIFICATION_TYPE":"U","MEAN_MOTION":13.29328299,"ECCENTRICITY":0.00004806,"INCLINATION":50.003,"RA_OF_ASC_NODE":48.433,"ARG_OF_PERICENTER":2.6369,"MEAN_ANOMALY":357.4505,"EPHEMERIS_TYPE":0,"NORAD_CAT_ID":66001,"ELEMENT_SET_NO":999,"REV_AT_EPOCH":3760,"BSTAR":0.0000243584,"MEAN_MOTION_DOT":-0.00000113,"MEAN_MOTION_DDOT":0},{"OBJECT_NAME":"HULIANWANG DIGUI-94","OBJECT_ID":"2025-231H","EPOCH":"2026-07-21T22:21:24.840000","CLASSIFICATION_TYPE":"U","MEAN_MOTION":13.29326254,"ECCENTRICITY":0.00005145,"INCLINATION":50.0067,"RA_OF_ASC_NODE":50.9888,"ARG_OF_PERICENTER":2.0824,"MEAN_ANOMALY":358.005,"EPHEMERIS_TYPE":0,"NORAD_CAT_ID":66002,"ELEMENT_SET_NO":999,"REV_AT_EPOCH":3751,"BSTAR":0.000042809856,"MEAN_MOTION_DOT":-0.00000104,"MEAN_MOTION_DDOT":0},{"OBJECT_NAME":"HULIANWANG DIGUI-95","OBJECT_ID":"2025-231J","EPOCH":"2026-07-22T19:36:14.816160","CLASSIFICATION_TYPE":"U","MEAN_MOTION":13.29332744,"ECCENTRICITY":0.0000428,"INCLINATION":50.0042,"RA_OF_ASC_NODE":47.6069,"ARG_OF_PERICENTER":9.8614,"MEAN_ANOMALY":350.2267,"EPHEMERIS_TYPE":0,"NORAD_CAT_ID":66003,"ELEMENT_SET_NO":999,"REV_AT_EPOCH":3763,"BSTAR":0.000019039413,"MEAN_MOTION_DOT":-0.00000115,"MEAN_MOTION_DDOT":0},{"OBJECT_NAME":"HULIANWANG DIGUI-96","OBJECT_ID":"2025-258A","EPOCH":"2026-07-22T21:58:40.806912","CLASSIFICATION_TYPE":"U","MEAN_MOTION":13.29327687,"ECCENTRICITY":0.0000799,"INCLINATION":50.0028,"RA_OF_ASC_NODE":167.4961,"ARG_OF_PERICENTER":277.6858,"MEAN_ANOMALY":82.3924,"EPHEMERIS_TYPE":0,"NORAD_CAT_ID":66412,"ELEMENT_SET_NO":999,"REV_AT_EPOCH":3448,"BSTAR":0.000081195491,"MEAN_MOTION_DOT":-8.6e-7,"MEAN_MOTION_DDOT":0},{"OBJECT_NAME":"HULIANWANG DIGUI-97","OBJECT_ID":"2025-258B","EPOCH":"2026-07-22T22:46:44.045760","CLASSIFICATION_TYPE":"U","MEAN_MOTION":13.29327219,"ECCENTRICITY":0.00009517,"INCLINATION":49.9992,"RA_OF_ASC_NODE":167.599,"ARG_OF_PERICENTER":276.3561,"MEAN_ANOMALY":83.7203,"EPHEMERIS_TYPE":0,"NORAD_CAT_ID":66413,"ELEMENT_SET_NO":999,"REV_AT_EPOCH":3448,"BSTAR":0.00010466869,"MEAN_MOTION_DOT":-7.5e-7,"MEAN_MOTION_DDOT":0},{"OBJECT_NAME":"HULIANWANG DIGUI-98","OBJECT_ID":"2025-258C","EPOCH":"2026-07-22T22:34:56.724384","CLASSIFICATION_TYPE":"U","MEAN_MOTION":13.29323742,"ECCENTRICITY":0.0001033,"INCLINATION":50.0029,"RA_OF_ASC_NODE":167.6368,"ARG_OF_PERICENTER":272.2329,"MEAN_ANOMALY":87.8425,"EPHEMERIS_TYPE":0,"NORAD_CAT_ID":66414,"ELEMENT_SET_NO":999,"REV_AT_EPOCH":3448,"BSTAR":0.00010623427,"MEAN_MOTION_DOT":-7.5e-7,"MEAN_MOTION_DDOT":0},{"OBJECT_NAME":"HULIANWANG DIGUI-99","OBJECT_ID":"2025-258D","EPOCH":"2026-07-22T21:46:41.984832","CLASSIFICATION_TYPE":"U","MEAN_MOTION":13.29326914,"ECCENTRICITY":0.00009209,"INCLINATION":50.0028,"RA_OF_ASC_NODE":167.4551,"ARG_OF_PERICENTER":280.1106,"MEAN_ANOMALY":79.9662,"EPHEMERIS_TYPE":0,"NORAD_CAT_ID":66415,"ELEMENT_SET_NO":999,"REV_AT_EPOCH":3447,"BSTAR":0.000080056535,"MEAN_MOTION_DOT":-8.7e-7,"MEAN_MOTION_DDOT":0},{"OBJECT_NAME":"HULIANWANG DIGUI-100","OBJECT_ID":"2025-258E","EPOCH":"2026-07-22T22:22:54.196608","CLASSIFICATION_TYPE":"U","MEAN_MOTION":13.2932374,"ECCENTRICITY":0.00009485,"INCLINATION":50.0032,"RA_OF_ASC_NODE":167.5978,"ARG_OF_PERICENTER":285.0982,"MEAN_ANOMALY":74.9785,"EPHEMERIS_TYPE":0,"NORAD_CAT_ID":66416,"ELEMENT_SET_NO":999,"REV_AT_EPOCH":3449,"BSTAR":0.000089363,"MEAN_MOTION_DOT":-8.3e-7,"MEAN_MOTION_DDOT":0},{"OBJECT_NAME":"HULIANWANG DIGUI-101","OBJECT_ID":"2025-258F","EPOCH":"2026-07-22T22:10:34.647168","CLASSIFICATION_TYPE":"U","MEAN_MOTION":13.29327654,"ECCENTRICITY":0.00007612,"INCLINATION":49.9981,"RA_OF_ASC_NODE":167.4428,"ARG_OF_PERICENTER":281.6387,"MEAN_ANOMALY":78.44,"EPHEMERIS_TYPE":0,"NORAD_CAT_ID":66417,"ELEMENT_SET_NO":999,"REV_AT_EPOCH":3449,"BSTAR":0.000091656178,"MEAN_MOTION_DOT":-8.1e-7,"MEAN_MOTION_DDOT":0},{"OBJECT_NAME":"HULIANWANG DIGUI-102","OBJECT_ID":"2025-258G","EPOCH":"2026-07-22T21:34:43.241376","CLASSIFICATION_TYPE":"U","MEAN_MOTION":13.2932359,"ECCENTRICITY":0.00008255,"INCLINATION":49.9995,"RA_OF_ASC_NODE":167.3386,"ARG_OF_PERICENTER":276.0677,"MEAN_ANOMALY":84.0101,"EPHEMERIS_TYPE":0,"NORAD_CAT_ID":66418,"ELEMENT_SET_NO":999,"REV_AT_EPOCH":3448,"BSTAR":0.000089058661,"MEAN_MOTION_DOT":-8.3e-7,"MEAN_MOTION_DDOT":0},{"OBJECT_NAME":"HULIANWANG DIGUI-103","OBJECT_ID":"2025-258H","EPOCH":"2026-07-22T21:22:28.952832","CLASSIFICATION_TYPE":"U","MEAN_MOTION":13.29326684,"ECCENTRICITY":0.00009384,"INCLINATION":49.9988,"RA_OF_ASC_NODE":167.2794,"ARG_OF_PERICENTER":285.6326,"MEAN_ANOMALY":74.4442,"EPHEMERIS_TYPE":0,"NORAD_CAT_ID":66419,"ELEMENT_SET_NO":999,"REV_AT_EPOCH":3448,"BSTAR":0.000090956486,"MEAN_MOTION_DOT":-8.2e-7,"MEAN_MOTION_DDOT":0},{"OBJECT_NAME":"HULIANWANG DIGUI-104","OBJECT_ID":"2025-258J","EPOCH":"2026-07-22T06:44:26.878560","CLASSIFICATION_TYPE":"U","MEAN_MOTION":13.29326681,"ECCENTRICITY":0.00008885,"INCLINATION":50.0004,"RA_OF_ASC_NODE":169.4336,"ARG_OF_PERICENTER":272.9527,"MEAN_ANOMALY":87.1243,"EPHEMERIS_TYPE":0,"NORAD_CAT_ID":66420,"ELEMENT_SET_NO":999,"REV_AT_EPOCH":3439,"BSTAR":0.000093422488,"MEAN_MOTION_DOT":-8.1e-7,"MEAN_MOTION_DDOT":0},{"OBJECT_NAME":"HULIANWANG DIGUI-105","OBJECT_ID":"2025-285A","EPOCH":"2026-07-22T17:39:54.268992","CLASSIFICATION_TYPE":"U","MEAN_MOTION":13.29322902,"ECCENTRICITY":0.00009086,"INCLINATION":50.0067,"RA_OF_ASC_NODE":18.7266,"ARG_OF_PERICENTER":60.6897,"MEAN_ANOMALY":299.4066,"EPHEMERIS_TYPE":0,"NORAD_CAT_ID":66915,"ELEMENT_SET_NO":999,"REV_AT_EPOCH":3078,"BSTAR":0.000033118761,"MEAN_MOTION_DOT":-0.00000109,"MEAN_MOTION_DDOT":0},{"OBJECT_NAME":"HULIANWANG DIGUI-106","OBJECT_ID":"2025-285B","EPOCH":"2026-07-22T21:04:19.521408","CLASSIFICATION_TYPE":"U","MEAN_MOTION":13.29323198,"ECCENTRICITY":0.00009342,"INCLINATION":50.0079,"RA_OF_ASC_NODE":18.165,"ARG_OF_PERICENTER":60.1587,"MEAN_ANOMALY":299.9378,"EPHEMERIS_TYPE":0,"NORAD_CAT_ID":66916,"ELEMENT_SET_NO":999,"REV_AT_EPOCH":3080,"BSTAR":-0.0000035013,"MEAN_MOTION_DOT":-0.00000126,"MEAN_MOTION_DDOT":0},{"OBJECT_NAME":"HULIANWANG DIGUI-107","OBJECT_ID":"2025-285C","EPOCH":"2026-07-22T20:52:04.373184","CLASSIFICATION_TYPE":"U","MEAN_MOTION":13.29326213,"ECCENTRICITY":0.00009024,"INCLINATION":50.0043,"RA_OF_ASC_NODE":18.0568,"ARG_OF_PERICENTER":64.8553,"MEAN_ANOMALY":295.2413,"EPHEMERIS_TYPE":0,"NORAD_CAT_ID":66917,"ELEMENT_SET_NO":999,"REV_AT_EPOCH":3080,"BSTAR":0.000039857249,"MEAN_MOTION_DOT":-0.00000106,"MEAN_MOTION_DDOT":0}]}
